# From MPC106342
C/1995 O1 (Hale-Bopp),e,89.0947,283.1330,130.8144,183.1685,0.0003976,0.99490338,0.0000,03/29.3733/1997,2000,g -2.0,4.0
# From NK 1615
P/1996 R2 (Lagerkvist),e,2.6010,40.0488,333.2915,3.772081,0.1345342,0.31329200,330.4732,07/07.0/2018,2000,g 11.5,4.0
# From MPC 30063
P/1997 B1 (Kobayashi),e,12.3521,328.9522,183.4180,8.553291,0.0394007,0.76050366,306.4036,07/07.0/2018,2000,g 15.0,2.0
# From MPC 75703
P/1998 VS24 (LINEAR),e,5.0223,159.0473,244.9199,4.534065,0.1020875,0.24161002,17.2544,07/07.0/2018,2000,g 13.0,2.0
# From NK 1780
P/1999 D1 (Hermann),e,21.3303,348.7714,174.1147,5.760778,0.0712824,0.71326430,144.4862,07/07.0/2018,2000,g 15.0,4.0
# From CCO 17
P/1999 R1 (SOHO),e,11.7047,354.0865,54.4224,2.512456,0.2474893,0.97996873,0.0000,08/31.1330/2019,2000,g 27.0,6.0
# From NK 731
P/1999 RO28 (LONEOS),e,7.5604,138.0064,231.0978,3.431831,0.1550298,0.67225113,305.1421,07/07.0/2018,2000,g 20.0,2.0
# From MPC 75704
P/1999 XN120 (Catalina),e,5.0296,285.2957,162.0051,4.180031,0.1153280,0.21118703,44.9399,07/07.0/2018,2000,g 13.5,2.0
# From NK 744
P/2000 R2 (LINEAR),e,11.6864,160.3779,176.3922,3.466905,0.1526832,0.53194359,307.2969,07/07.0/2018,2000,g 18.0,4.0
# From MPC 73461
P/2000 S4 (LINEAR-Spacewatch),e,28.3780,173.8632,172.9513,7.126281,0.0518095,0.68189466,336.8705,07/07.0/2018,2000,g 17.5,2.0
# From MPC 75704
P/2001 BB50 (LINEAR-NEAT),e,10.3605,351.1959,193.6397,5.737192,0.0717224,0.58704061,100.5820,07/07.0/2018,2000,g 13.0,4.0
# From MPC 43019
P/2001 H5 (NEAT),e,8.3770,328.6991,224.8160,6.095809,0.0654873,0.59988230,64.7849,07/07.0/2018,2000,g 12.0,4.0
# From MPC 75704
P/2001 Q6 (NEAT),e,56.8590,22.0124,43.0738,7.936585,0.0440812,0.82263372,268.9847,07/07.0/2018,2000,g 13.5,4.0
# From MPC 82311
P/2001 R6 (LINEAR-Skiff),e,17.3795,67.3348,308.4785,4.180059,0.1153269,0.47582638,349.7093,07/07.0/2018,2000,g 13.0,4.0
# From MPC109588
P/2001 T3 (NEAT),e,19.3975,55.1634,356.7805,6.446279,0.0602200,0.61445413,1.5865,07/07.0/2018,2000,g 12.0,4.0
# From MPC 47727
P/2002 EJ57 (LINEAR),e,4.9769,330.4320,167.0222,6.461165,0.0600120,0.59338494,1.1068,07/07.0/2018,2000,g 12.5,4.0
# From MPC109588
P/2002 T5 (LINEAR),e,30.8630,123.1075,326.9429,6.989072,0.0533427,0.43715716,292.8399,07/07.0/2018,2000,g  8.0,4.0
# From MPC109588
P/2002 T6 (NEAT-LINEAR),e,10.8886,207.7081,218.6271,7.645519,0.0466223,0.55923826,256.8329,07/07.0/2018,2000,g 10.5,4.0
# From MPC 75007
C/2002 VQ94 (LINEAR),e,70.4400,34.8952,100.2004,190.7950,0.0003740,0.96423806,1.6971,07/07.0/2018,2000,g  9.5,2.0
# From MPC 50354
P/2003 F2 (NEAT),e,11.6038,359.1028,191.7632,6.491932,0.0595858,0.54242643,330.6398,07/07.0/2018,2000,g 16.5,2.0
# From MPC 75704
P/2003 L1 (Scotti),e,9.0204,226.0666,354.7481,6.720402,0.0565733,0.25317230,318.5237,07/07.0/2018,2000,g  8.5,4.0
# From MPC 50139
P/2003 QX29 (NEAT),e,11.3892,264.5963,37.1502,8.049481,0.0431571,0.47168995,248.3510,07/07.0/2018,2000,g  8.5,4.0
# From MPC 99268
P/2003 T12 (SOHO),e,11.1115,175.2638,219.1729,2.584187,0.2372566,0.77203832,201.3749,07/07.0/2018,2000,g 17.0,4.0
# From MPC 75705
P/2003 U3 (NEAT),e,7.0077,347.9954,356.8481,5.055751,0.0867013,0.50895333,117.9976,07/07.0/2018,2000,g 13.5,4.0
# From MPC 82312
P/2004 A1 (LONEOS),e,10.5572,124.8904,21.7247,7.938414,0.0440660,0.31096908,222.4516,07/07.0/2018,2000,g  6.5,4.0
# From MPC 54558
P/2004 DO29 (Spacewatch-LINEAR),e,14.5331,147.4592,40.7327,7.278604,0.0501917,0.44253455,251.7124,07/07.0/2018,2000,g 13.5,2.0
# From MPC 54823
P/2004 FY140 (LINEAR),e,2.1362,326.7793,242.3138,4.895671,0.0909883,0.17000403,97.8940,07/07.0/2018,2000,g 12.5,2.0
# From MPC 53304
P/2004 R3 (LINEAR-NEAT),e,12.7818,305.8978,40.9372,4.736878,0.0956017,0.26108171,246.0030,07/07.0/2018,2000,g 14.5,4.0
# From MPC 55521
P/2004 V3 (Siding Spring),e,50.3778,356.0972,322.2018,7.149600,0.0515563,0.44543988,258.6847,07/07.0/2018,2000,g 11.5,4.0
# From MPC 75705
P/2004 V5 (LINEAR-Hill),e,19.3535,47.7117,88.0679,7.960868,0.0438797,0.44489707,213.8692,07/07.0/2018,2000,g  8.0,4.0
# From MPC 75705
P/2004 WR9 (LINEAR),e,4.9308,24.8812,72.0651,6.142160,0.0647474,0.68267913,318.9040,07/07.0/2018,2000,g 14.5,4.0
# From MPC 54164
P/2005 E1 (Tubbiolo),e,4.2656,335.6484,194.2133,7.030968,0.0528666,0.37625194,259.0202,07/07.0/2018,2000,g 10.0,4.0
# From MPC 54823
P/2005 GF8 (LONEOS),e,1.1923,314.9078,285.3836,5.854724,0.0695736,0.51640904,328.6438,07/07.0/2018,2000,g 11.5,4.0
# From MPC 79019
P/2005 J1 (McNaught),e,31.7678,268.7979,338.9286,3.569097,0.1461728,0.57035998,345.6899,07/07.0/2018,2000,g 16.5,4.0
# From MPC 75705
P/2005 JD108 (Catalina-NEAT),e,3.2818,223.8095,90.0908,6.503350,0.0594290,0.37518353,284.1143,07/07.0/2018,2000,g 10.0,4.0
# From MPC 74246
P/2005 L1 (McNaught),e,7.7353,138.2391,149.4565,3.979205,0.1241680,0.20866608,209.2461,07/07.0/2018,2000,g  9.5,4.0
# From MPC 87062
C/2005 L3 (McNaught),e,139.5317,288.7815,47.1624,2980,0.0000061,0.99811727,0.0000,01/10.3730/2008,2000,g  4.0,4.0
# From MPEC 2018-L76
P/2005 R1 (NEAT),e,15.4846,257.9779,118.8059,5.524112,0.0759120,0.62567967,354.7428,07/07.0/2018,2000,g 14.0,4.0
# From MPC 75706
P/2005 S2 (Skiff),e,3.1356,161.1796,229.7154,8.018343,0.0434087,0.19567734,192.0898,07/07.0/2018,2000,g  7.5,4.0
# From MPC 75706
P/2005 SB216 (LONEOS),e,24.0534,1.3487,83.5338,7.117579,0.0519046,0.46268046,216.7269,07/07.0/2018,2000,g 12.0,2.0
# From MPC 55717
P/2005 T2 (Christensen),e,8.2921,260.1836,59.0754,3.842729,0.1308412,0.41721223,276.0007,07/07.0/2018,2000,g 14.5,4.0
# From MPC 73461
P/2005 T3 (Read),e,6.2415,27.9350,8.2667,7.560018,0.0474154,0.17166042,217.6096,07/07.0/2018,2000,g  9.0,4.0
# From MPC 73461
P/2005 T4 (SWAN),e,160.0732,25.3918,41.3025,9.356108,0.0344398,0.93097084,160.5706,07/07.0/2018,2000,g 15.0,4.0
# From MPC 75706
P/2005 T5 (Broughton),e,21.3350,57.0285,304.4980,7.293748,0.0500355,0.55046141,232.9370,07/07.0/2018,2000,g 11.0,4.0
# From MPC 56954
P/2005 W3 (Kowalski),e,16.4133,210.2552,200.2674,6.343152,0.0616945,0.54254166,287.6856,07/07.0/2018,2000,g 12.0,4.0
# From MPC 75706
P/2005 XA54 (LONEOS-Hill),e,17.1244,143.7192,15.1652,6.048583,0.0662558,0.71051955,297.9153,07/07.0/2018,2000,g 14.0,4.0
# From MPC 75706
P/2005 Y2 (McNaught),e,19.1095,94.5224,194.3245,6.338126,0.0617679,0.46678451,308.1915,07/07.0/2018,2000,g  9.0,4.0
# From MPC 75707
P/2006 D1 (Hill),e,17.3650,359.9677,119.4247,5.564037,0.0750964,0.65940406,347.4091,07/07.0/2018,2000,g 16.0,4.0
# From MPC 75707
P/2006 F1 (Kowalski),e,21.2795,124.7456,186.1753,4.670411,0.0976498,0.12036057,11.1214,07/07.0/2018,2000,g  8.0,4.0
# From MPC 56954
P/2006 F4 (Spacewatch),e,12.3879,184.0355,31.1375,3.526299,0.1488420,0.33805103,301.6949,07/07.0/2018,2000,g 15.0,4.0
# From MPC 58118
P/2006 H1 (McNaught),e,12.8278,0.0449,309.3508,5.768240,0.0711441,0.58081278,323.0763,07/07.0/2018,2000,g 12.5,4.0
# From MPC 75707
P/2006 HR30 (Siding Spring),e,31.8695,309.7799,117.4470,7.809542,0.0451612,0.84152972,190.2580,07/07.0/2018,2000,g 11.0,4.0
# From MPC 73914
C/2006 K4 (NEAT),e,111.4699,116.6872,233.6643,1071,0.0000281,0.99701373,0.0000,11/24.3912/2007,2000,g  6.0,4.0
# From MPC 82313
C/2006 OF2 (Broughton),h,09/09.8097/2008,30.1419,318.5710,95.8013,1.001665,2.455073,2000,5.5,4.0
# From MPC 72849
C/2006 Q1 (McNaught),e,59.1377,199.3436,344.5277,2644,0.0000072,0.99895061,0.0000,07/04.0531/2008,2000,g  5.0,4.0
# From MPC 73461
P/2006 R1 (Siding Spring),e,160.0720,218.8297,249.2826,5.636198,0.0736588,0.70495290,319.7228,07/07.0/2018,2000,g 16.0,4.0
# From MPC 69905
P/2006 S1 (Christensen),e,12.3387,207.9134,133.6994,3.541549,0.1478816,0.60016718,289.7081,07/07.0/2018,2000,g 17.5,4.0
# From MPC105235
C/2006 S3 (LONEOS),e,166.0217,38.3388,140.0927,28665,0.0000002,0.99982044,0.0000,04/12.6414/2012,2000,g  2.0,4.0
# From MPC 75707
P/2006 S4 (Christensen),e,39.5843,36.1092,305.3927,6.286937,0.0625238,0.50657891,279.3453,07/07.0/2018,2000,g 11.0,4.0
# From MPC 60465
C/2006 S5 (Hill),e,10.1063,281.5259,182.2860,96.92382,0.0010329,0.97259263,0.0000,12/04.1867/2007,2000,g  8.0,4.0
# From MPC 66204
C/2006 U6 (Spacewatch),e,84.7656,180.0654,276.7032,2134,0.0000100,0.99882046,0.0000,05/31.0937/2008,2000,g  8.0,4.0
# From MPC 62580
C/2006 V1 (Catalina),e,31.3746,335.4754,253.0982,158.7375,0.0004928,0.98330020,0.0000,11/28.3981/2007,2000,g  8.0,4.0
# From MPC105235
P/2006 W1 (Gibbs),e,18.5170,152.5250,231.9222,5.827335,0.0700647,0.70735723,315.3794,07/07.0/2018,2000,g 12.0,4.0
# From MPC 82313
C/2006 W3 (Christensen),e,127.0754,113.4012,133.1728,3493,0.0000048,0.99911002,0.0000,07/05.2136/2009,2000,g  5.0,4.0
# From MPC 75707
P/2007 A2 (Christensen),e,26.5009,300.9374,186.9014,6.312363,0.0621464,0.55782636,260.1516,07/07.0/2018,2000,g 13.5,4.0
# From MPC 59319
P/2007 B1 (Christensen),e,12.3777,77.6668,46.8785,5.810426,0.0703707,0.58090191,294.2897,07/07.0/2018,2000,g 13.5,4.0
# From MPC 66700
C/2007 B2 (Skiff),e,27.5791,14.7064,206.1832,678.7967,0.0000557,0.99562284,0.0000,08/24.5091/2008,2000,g  6.0,4.0
# From MPC 75707
P/2007 C2 (Catalina),e,8.7181,275.8278,179.4792,7.019144,0.0530002,0.46455021,209.7451,07/07.0/2018,2000,g 10.0,4.0
# From MPC 84315
C/2007 D1 (LINEAR),e,41.4935,171.0130,340.3185,2438,0.0000082,0.99637689,0.0000,06/15.9130/2007,2000,g  3.5,4.0
# From MPC 66464
C/2007 G1 (LINEAR),e,88.6359,79.0293,223.8869,6564,0.0000019,0.99959701,0.0000,11/14.9799/2008,2000,g  5.5,4.0
# From MPC 82314
P/2007 K2 (Gibbs),e,7.6571,188.6471,347.5395,7.253507,0.0504524,0.68508536,203.8174,07/07.0/2018,2000,g 14.0,4.0
# From MPC 82314
C/2007 K3 (Siding Spring),e,16.4106,263.1854,23.2932,1650,0.0000147,0.99877355,0.0000,04/23.4879/2008,2000,g  9.5,4.0
# From MPC 87475
C/2007 M1 (McNaught),e,139.7358,326.8796,52.6440,1118,0.0000264,0.99331057,0.0000,08/05.5529/2008,2000,g  6.0,4.0
# From MPC 68392
C/2007 M2 (Catalina),e,81.0293,357.2348,220.7345,1792,0.0000130,0.99802152,0.0000,12/11.3600/2008,2000,g  8.0,4.0
# From MPC 73461
C/2007 N3 (Lulin),e,178.3766,338.1901,136.6814,1668,0.0000145,0.99926239,0.0000,01/08.9141/2009,2000,g  6.5,4.0
# From MPC 60925
